     2.100          NAVIGATION                              RINEX VERSION / TYPE
fic2rin                                 08/05/2009 01:15:54 PGM / RUN BY / DATE
                                                            END OF HEADER
 8 09  8  4  8  0  0.0 -.215074047446D-03 -.181898940355D-11  .000000000000D+00
     .410000000000D+02 -.275625000000D+02  .401016703955D-08 -.181107218905D+01
    -.146962702274D-05  .108042182401D-01  .161677598953D-05  .515363135338D+04
     .201600000000D+06 -.596046447754D-07  .155494662760D+01 -.141561031342D-06
     .989173792407D+00  .363718750000D+03  .300330062885D+01 -.805997858760D-08
    -.453590322429D-10  .100000000000D+01  .154300000000D+04  .000000000000D+00
     .240000000000D+01  .000000000000D+00 -.372529029846D-08  .410000000000D+02
     .194406000000D+06  .400000000000D+01
 9 09  8  4  8  0  0.0  .701122917235D-04  .204636307899D-11  .000000000000D+00
     .870000000000D+02 -.179687500000D+02  .417660254369D-08 -.205679971063D+01
    -.607222318649D-06  .207679789746D-01  .299885869026D-06  .515363311958D+04
     .201600000000D+06  .309199094772D-06  .145959972463D+01  .135973095894D-06
     .976853018809D+00  .380718750000D+03  .150094444475D+01 -.797283210046D-08
    -.124290891500D-09  .100000000000D+01  .154300000000D+04  .000000000000D+00
     .340000000000D+01  .000000000000D+00 -.558793544769D-08  .870000000000D+02
     .194406000000D+06  .400000000000D+01
10 09  8  4  8  0  0.0 -.204946845770D-04 -.682121026330D-12  .000000000000D+00
     .140000000000D+03  .168750000000D+02  .466840874368D-08  .157337413621D+01
     .105053186417D-05  .856419827323D-02  .102184712887D-04  .515364741135D+04
     .201600000000D+06 -.135973095894D-06 -.577774025556D+00  .176951289177D-06
     .957420744417D+00  .183625000000D+03  .624114575803D+00 -.797211778499D-08
    -.482520098899D-09  .100000000000D+01  .154300000000D+04  .000000000000D+00
     .340000000000D+01  .000000000000D+00 -.279396772385D-08  .140000000000D+03
     .194406000000D+06  .400000000000D+01
11 09  8  4  8  0  0.0 -.135349109769D-04 -.170530256582D-11  .000000000000D+00
     .510000000000D+02  .119062500000D+02  .664170522511D-08 -.127357944019D+01
     .692903995514D-06  .959298887756D-02  .386126339436D-05  .515368314171D+04
     .201600000000D+06  .217929482460D-06 -.186648782287D+01 -.745058059692D-08
     .888823700835D+00  .260906250000D+03  .710330245477D+00 -.901180394924D-08
     .305369862738D-09  .100000000000D+01  .154300000000D+04  .000000000000D+00
     .240000000000D+01  .000000000000D+00 -.116415321827D-07  .510000000000D+02
     .194406000000D+06  .400000000000D+01
13 09  8  4  8  0  0.0  .302599277347D-03  .682121026330D-12  .000000000000D+00
     .450000000000D+02  .111156250000D+03  .366943856113D-08  .116918880984D+01
     .555440783501D-05  .411118974444D-02  .695511698723D-05  .515367416954D+04
     .201600000000D+06 -.931322574615D-07  .504781768953D+00 -.707805156708D-07
     .994855627250D+00  .263250000000D+03  .163938795319D+01 -.767639118108D-08
     .871464871438D-10  .100000000000D+01  .154300000000D+04  .000000000000D+00
     .240000000000D+01  .000000000000D+00 -.111758708954D-07  .450000000000D+02
     .194406000000D+06  .400000000000D+01
14 09  8  4  8  0  0.0 -.701802782714D-04  .545696821064D-11  .000000000000D+00
     .340000000000D+02  .127500000000D+03  .387087552322D-08  .112453573999D+01
     .667758285999D-05  .470732664689D-02  .717677175999D-05  .515363551331D+04
     .201600000000D+06 -.540167093277D-07  .484856116661D+00  .651925802231D-07
     .988325490101D+00  .258218750000D+03 -.216895188356D+01 -.786997067301D-08
     .100004165575D-09  .100000000000D+01  .154300000000D+04  .000000000000D+00
     .240000000000D+01  .000000000000D+00 -.931322574615D-08  .340000000000D+02
     .194406000000D+06  .400000000000D+01
15 09  8  4  8  0  0.0 -.312430784106D-03 -.204636307899D-11  .000000000000D+00
     .910000000000D+02  .117625000000D+03  .459626288137D-08  .130556416466D+01
     .615231692791D-05  .152815517504D-02  .666826963425D-05  .515364671707D+04
     .201600000000D+06  .353902578354D-07  .430248946967D+00 -.242143869400D-07
     .956285468785D+00  .243312500000D+03 -.490204003879D+00 -.811855245601D-08
     .128576784311D-10  .100000000000D+01  .154300000000D+04  .000000000000D+00
     .340000000000D+01  .000000000000D+00 -.977888703346D-08  .910000000000D+02
     .194406000000D+06  .400000000000D+01
16 09  8  4  8  0  0.0  .263382680714D-04 -.375166564481D-11  .000000000000D+00
     .780000000000D+02 -.127125000000D+03  .390659129664D-08  .275124770405D+01
    -.651553273201D-05  .531572930049D-02  .862032175064D-05  .515360399246D+04
     .201600000000D+06  .111758708954D-07  .256302500961D+01  .167638063431D-07
     .969343905659D+00  .219156250000D+03 -.299927392928D+00 -.773353641855D-08
    -.149649090628D-09  .100000000000D+01  .154300000000D+04  .000000000000D+00
     .240000000000D+01  .000000000000D+00 -.977888703346D-08  .780000000000D+02
     .194406000000D+06  .400000000000D+01
17 09  8  4  8  0  0.0  .749351456761D-04  .261479726760D-11  .000000000000D+00
     .150000000000D+02  .481250000000D+01  .441554106787D-08  .162671237661D+01
     .175088644028D-06  .460146646947D-02  .916235148907D-05  .515371784782D+04
     .201600000000D+06 -.894069671631D-07 -.267813771765D+01  .409781932831D-07
     .960061865996D+00  .197656250000D+03 -.263503217082D+01 -.789390024120D-08
     .575381109790D-09  .100000000000D+01  .154300000000D+04  .000000000000D+00
     .240000000000D+01  .000000000000D+00 -.102445483208D-07  .150000000000D+02
     .194406000000D+06  .400000000000D+01
18 09  8  4  8  0  0.0  .241212546825D-05  .306954461848D-11  .000000000000D+00
     .920000000000D+02  .201250000000D+02  .480591447134D-08  .295083904503D+01
     .944361090660D-06  .107895700494D-01  .105500221252D-04  .515361966133D+04
     .201600000000D+06 -.745058059692D-07 -.573361953867D+00 -.197440385818D-06
     .941452515208D+00  .164875000000D+03 -.239704088189D+01 -.782711174491D-08
    -.541451125041D-09  .100000000000D+01  .154300000000D+04  .000000000000D+00
     .240000000000D+01  .000000000000D+00 -.107102096081D-07  .920000000000D+02
     .194406000000D+06  .400000000000D+01
20 09  8  4  8  0  0.0  .756187364459D-04 -.909494701773D-12  .000000000000D+00
     .330000000000D+02  .481250000000D+01  .498770775805D-08 -.313438426373D+01
     .303611159325D-06  .384218199179D-02  .980868935585D-05  .515379767227D+04
     .201600000000D+06  .689178705215D-07 -.627218036549D+00 -.670552253723D-07
     .941096070829D+00  .177812500000D+03  .133777773780D+01 -.804140638542D-08
    -.479662837025D-09  .100000000000D+01  .154300000000D+04  .000000000000D+00
     .240000000000D+01  .000000000000D+00 -.651925802231D-08  .330000000000D+02
     .194406000000D+06  .400000000000D+01
21 09  8  4  8  0  0.0 -.114226713777D-05 -.216004991671D-11  .000000000000D+00
     .180000000000D+02 -.712500000000D+01  .558558980509D-08 -.206164348359D+01
    -.745058059692D-06  .154831847176D-01  .460632145405D-05  .515375722694D+04
     .201600000000D+06  .191852450371D-06 -.163179268294D+01 -.154599547386D-06
     .933244848434D+00  .273843750000D+03 -.256963254390D+01 -.836784855448D-08
     .201436962087D-09  .100000000000D+01  .154300000000D+04  .000000000000D+00
     .240000000000D+01  .000000000000D+00 -.121071934700D-07  .180000000000D+02
     .194406000000D+06  .400000000000D+01
22 09  8  4  8  0  0.0  .194032210857D-03 -.909494701773D-12  .000000000000D+00
     .770000000000D+02  .178125000000D+02  .497806449923D-08  .192723646603D+01
     .899657607079D-06  .525082263630D-02  .105872750282D-04  .515366115761D+04
     .201600000000D+06 -.353902578354D-07 -.567820813708D+00 -.171363353729D-06
     .939123436981D+00  .164906250000D+03 -.189598643803D+01 -.801033366255D-08
    -.481448625696D-09  .100000000000D+01  .154300000000D+04  .000000000000D+00
     .340000000000D+01  .000000000000D+00 -.176951289177D-07  .770000000000D+02
     .194406000000D+06  .400000000000D+01
23 09  8  4  8  0  0.0  .389731954783D-03 -.227373675443D-12  .000000000000D+00
     .650000000000D+02  .108781250000D+03  .428124975981D-08  .481446067784D+00
     .544078648090D-05  .639545568265D-02  .702962279320D-05  .515358668327D+04
     .201600000000D+06  .465661287308D-07  .451158123472D+00 -.204890966415D-07
     .970299662224D+00  .244437500000D+03  .293018225554D+01 -.799569019545D-08
     .107147320259D-10  .100000000000D+01  .154300000000D+04  .000000000000D+00
     .240000000000D+01  .000000000000D+00 -.200234353542D-07  .650000000000D+02
     .194406000000D+06  .400000000000D+01
26 09  8  4  8  0  0.0  .647041015327D-04 -.227373675443D-12  .000000000000D+00
     .104000000000D+03  .126031250000D+03  .366443835285D-08 -.145773598748D+01
     .677444040775D-05  .202334173955D-01  .621378421783D-05  .515491843224D+04
     .201600000000D+06  .448897480965D-06  .502272846892D+00  .176951289177D-06
     .992674157457D+00  .276125000000D+03  .102948962468D+01 -.761638868173D-08
     .156435087578D-09  .100000000000D+01  .154300000000D+04  .000000000000D+00
     .240000000000D+01  .000000000000D+00 -.651925802231D-08  .104000000000D+03
     .194406000000D+06  .400000000000D+01
27 09  8  4  8  0  0.0  .713095068932D-04  .318323145621D-11  .000000000000D+00
     .350000000000D+02 -.116562500000D+02  .447304346307D-08  .126796904549D+01
    -.130757689476D-05  .213120598346D-01  .149011611938D-05  .515375548172D+04
     .201600000000D+06 -.189989805222D-06  .143535411768D+01 -.502914190292D-06
     .974902609613D+00  .363156250000D+03 -.156415462459D+01 -.844892336014D-08
    -.200365488884D-09  .100000000000D+01  .154300000000D+04  .000000000000D+00
     .240000000000D+01  .000000000000D+00 -.419095158577D-08  .350000000000D+02
     .194406000000D+06  .400000000000D+01
